{
  "type": "FeatureCollection",
  "features": [
    {
      "type": "Feature",
      "properties": {
        "norad_id": 40730,
        "name": "GPS BIIF-10 (PRN 08)",
        "group": "gps-ops",
        "lat": -38.82505661451042,
        "lon": -120.53809657156098,
        "alt_km": 20118.716126012634,
        "timestamp": "2025-12-06T16:45:42.981112+00:00",
        "meta_object_name": "GPS BIIF-10 (PRN 08)",
        "meta_object_id": "2015-033A",
        "meta_epoch": "2025-12-05T06:31:35.095008",
        "meta_mean_motion": 2.00565806,
        "meta_eccentricity": 0.0110509,
        "meta_inclination": 54.1373,
        "meta_ra_of_asc_node": 275.0802,
        "meta_arg_of_pericenter": 26.625,
        "meta_mean_anomaly": 333.9439,
        "meta_ephemeris_type": 0,
        "meta_classification_type": "U",
        "meta_norad_cat_id": 40730,
        "meta_element_set_no": 999,
        "meta_rev_at_epoch": 7610,
        "meta_bstar": 0,
        "meta_mean_motion_dot": -3e-07,
        "meta_mean_motion_ddot": 0,
        "tle_line1": "1 40730U 15033A   25339.27193397 -.00000030  00000+0  00000+0 0  9991",
        "tle_line2": "2 40730  54.1373 275.0802 0110509  26.6250 333.9439  2.00565806 76100"
      },
      "geometry": {
        "type": "Point",
        "coordinates": [
          -120.53809657156098,
          -38.82505661451042
        ]
      }
    },
    {
      "type": "Feature",
      "properties": {
        "norad_id": 41019,
        "name": "GPS BIIF-11 (PRN 10)",
        "group": "gps-ops",
        "lat": -56.7121684272242,
        "lon": -57.31096096741596,
        "alt_km": 19952.232713041183,
        "timestamp": "2025-12-06T16:45:42.981123+00:00",
        "meta_object_name": "GPS BIIF-11 (PRN 10)",
        "meta_object_id": "2015-062A",
        "meta_epoch": "2025-12-04T19:59:07.703520",
        "meta_mean_motion": 2.0056698,
        "meta_eccentricity": 0.0110602,
        "meta_inclination": 56.8265,
        "meta_ra_of_asc_node": 38.3083,
        "meta_arg_of_pericenter": 229.7198,
        "meta_mean_anomaly": 129.3626,
        "meta_ephemeris_type": 0,
        "meta_classification_type": "U",
        "meta_norad_cat_id": 41019,
        "meta_element_set_no": 999,
        "meta_rev_at_epoch": 7393,
        "meta_bstar": 0,
        "meta_mean_motion_dot": -6.6e-07,
        "meta_mean_motion_ddot": 0,
        "tle_line1": "1 41019U 15062A   25338.83272805 -.00000066  00000+0  00000+0 0  9996",
        "tle_line2": "2 41019  56.8265  38.3083 0110602 229.7198 129.3626  2.00566980 73939"
      },
      "geometry": {
        "type": "Point",
        "coordinates": [
          -57.31096096741596,
          -56.7121684272242
        ]
      }
    },
    {
      "type": "Feature",
      "properties": {
        "norad_id": 41328,
        "name": "GPS BIIF-12 (PRN 32)",
        "group": "gps-ops",
        "lat": -21.268469325573815,
        "lon": -67.34466294080563,
        "alt_km": 19990.637126219313,
        "timestamp": "2025-12-06T16:45:42.981135+00:00",
        "meta_object_name": "GPS BIIF-12 (PRN 32)",
        "meta_object_id": "2016-007A",
        "meta_epoch": "2025-12-05T09:55:37.612128",
        "meta_mean_motion": 2.00560998,
        "meta_eccentricity": 0.00917952,
        "meta_inclination": 55.402,
        "meta_ra_of_asc_node": 97.1478,
        "meta_arg_of_pericenter": 243.3887,
        "meta_mean_anomaly": 115.6411,
        "meta_ephemeris_type": 0,
        "meta_classification_type": "U",
        "meta_norad_cat_id": 41328,
        "meta_element_set_no": 999,
        "meta_rev_at_epoch": 7195,
        "meta_bstar": 0,
        "meta_mean_motion_dot": -1.1e-07,
        "meta_mean_motion_ddot": 0,
        "tle_line1": "1 41328U 16007A   25339.41362977 -.00000011  00000+0  00000+0 0  9994",
        "tle_line2": "2 41328  55.4020  97.1478 0091795 243.3887 115.6411  2.00560998 71958"
      },
      "geometry": {
        "type": "Point",
        "coordinates": [
          -67.34466294080563,
          -21.268469325573815
        ]
      }
    },
    {
      "type": "Feature",
      "properties": {
        "norad_id": 43873,
        "name": "GPS BIII-1  (PRN 04)",
        "group": "gps-ops",
        "lat": 54.03357592043549,
        "lon": -151.0421061371313,
        "alt_km": 20182.509740297643,
        "timestamp": "2025-12-06T16:45:42.981147+00:00",
        "meta_object_name": "GPS BIII-1  (PRN 04)",
        "meta_object_id": "2018-109A",
        "meta_epoch": "2025-12-06T07:17:11.236992",
        "meta_mean_motion": 2.00553219,
        "meta_eccentricity": 0.00371759,
        "meta_inclination": 55.5637,
        "meta_ra_of_asc_node": 99.801,
        "meta_arg_of_pericenter": 194.724,
        "meta_mean_anomaly": 341.7092,
        "meta_ephemeris_type": 0,
        "meta_classification_type": "U",
        "meta_norad_cat_id": 43873,
        "meta_element_set_no": 999,
        "meta_rev_at_epoch": 5120,
        "meta_bstar": 0,
        "meta_mean_motion_dot": -5e-08,
        "meta_mean_motion_ddot": 0,
        "tle_line1": "1 43873U 18109A   25340.30360228 -.00000005  00000+0  00000+0 0  9996",
        "tle_line2": "2 43873  55.5637  99.8010 0037175 194.7240 341.7092  2.00553219 51206"
      },
      "geometry": {
        "type": "Point",
        "coordinates": [
          -151.0421061371313,
          54.03357592043549
        ]
      }
    },
    {
      "type": "Feature",
      "properties": {
        "norad_id": 44506,
        "name": "GPS BIII-2  (PRN 18)",
        "group": "gps-ops",
        "lat": -1.3037574271950094,
        "lon": -22.102424773198535,
        "alt_km": 20326.296120742085,
        "timestamp": "2025-12-06T16:45:42.981159+00:00",
        "meta_object_name": "GPS BIII-2  (PRN 18)",
        "meta_object_id": "2019-056A",
        "meta_epoch": "2025-12-05T10:37:28.856640",
        "meta_mean_motion": 2.00565628,
        "meta_eccentricity": 0.00578088,
        "meta_inclination": 55.7239,
        "meta_ra_of_asc_node": 338.8423,
        "meta_arg_of_pericenter": 198.4648,
        "meta_mean_anomaly": 333.0445,
        "meta_ephemeris_type": 0,
        "meta_classification_type": "U",
        "meta_norad_cat_id": 44506,
        "meta_element_set_no": 999,
        "meta_rev_at_epoch": 4618,
        "meta_bstar": 0,
        "meta_mean_motion_dot": -7.6e-07,
        "meta_mean_motion_ddot": 0,
        "tle_line1": "1 44506U 19056A   25339.44269510 -.00000076  00000+0  00000+0 0  9995",
        "tle_line2": "2 44506  55.7239 338.8423 0057808 198.4648 333.0445  2.00565628 46186"
      },
      "geometry": {
        "type": "Point",
        "coordinates": [
          -22.102424773198535,
          -1.3037574271950094
        ]
      }
    },
    {
      "type": "Feature",
      "properties": {
        "norad_id": 45854,
        "name": "GPS BIII-3  (PRN 23)",
        "group": "gps-ops",
        "lat": -44.394391610104506,
        "lon": -3.8612281801222674,
        "alt_km": 20213.922587512097,
        "timestamp": "2025-12-06T16:45:42.981170+00:00",
        "meta_object_name": "GPS BIII-3  (PRN 23)",
        "meta_object_id": "2020-041A",
        "meta_epoch": "2025-12-05T00:44:21.679872",
        "meta_mean_motion": 2.00561656,
        "meta_eccentricity": 0.00602963,
        "meta_inclination": 56.5415,
        "meta_ra_of_asc_node": 36.4861,
        "meta_arg_of_pericenter": 203.0901,
        "meta_mean_anomaly": 335.2174,
        "meta_ephemeris_type": 0,
        "meta_classification_type": "U",
        "meta_norad_cat_id": 45854,
        "meta_element_set_no": 999,
        "meta_rev_at_epoch": 4014,
        "meta_bstar": 0,
        "meta_mean_motion_dot": -6.7e-07,
        "meta_mean_motion_ddot": 0,
        "tle_line1": "1 45854U 20041A   25339.03080648 -.00000067  00000+0  00000+0 0  9996",
        "tle_line2": "2 45854  56.5415  36.4861 0060296 203.0901 335.2174  2.00561656 40145"
      },
      "geometry": {
        "type": "Point",
        "coordinates": [
          -3.8612281801222674,
          -44.394391610104506
        ]
      }
    },
    {
      "type": "Feature",
      "properties": {
        "norad_id": 46826,
        "name": "GPS BIII-4  (PRN 14)",
        "group": "gps-ops",
        "lat": -53.84408991220896,
        "lon": 135.090029570607,
        "alt_km": 20127.45971523447,
        "timestamp": "2025-12-06T16:45:42.981182+00:00",
        "meta_object_name": "GPS BIII-4  (PRN 14)",
        "meta_object_id": "2020-078A",
        "meta_epoch": "2025-11-12T03:01:29.191584",
        "meta_mean_motion": 2.00567032,
        "meta_eccentricity": 0.00639112,
        "meta_inclination": 54.0223,
        "meta_ra_of_asc_node": 219.5836,
        "meta_arg_of_pericenter": 203.4986,
        "meta_mean_anomaly": 326.7753,
        "meta_ephemeris_type": 0,
        "meta_classification_type": "U",
        "meta_norad_cat_id": 46826,
        "meta_element_set_no": 999,
        "meta_rev_at_epoch": 3715,
        "meta_bstar": 0,
        "meta_mean_motion_dot": -3.4e-07,
        "meta_mean_motion_ddot": 0,
        "tle_line1": "1 46826U 20078A   25316.12603231 -.00000034  00000+0  00000+0 0  9994",
        "tle_line2": "2 46826  54.0223 219.5836 0063911 203.4986 326.7753  2.00567032 37154"
      },
      "geometry": {
        "type": "Point",
        "coordinates": [
          135.090029570607,
          -53.84408991220896
        ]
      }
    }
  ]
}